STARLINK-3394           
1 51118U 22005Q   26068.88304626  .00000221  00000+0  32003-4 0  9990
2 51118  53.2169 288.2551 0001347  89.7180 270.3966 15.08841259228900
CSC-1                   
1 58022U 23155G   26068.74030489  .00008819  00000+0  54557-3 0  9994
2 58022  97.5446 139.7305 0007504 212.9992 147.0770 15.10035960132723
